[{"OBJECT_NAME":"STARLINK-35997","OBJECT_ID":"2025-280Y","EPOCH":"2026-03-09T22:21:26.676864","MEAN_MOTION":14.98330654,"ECCENTRICITY":0.00019646,"INCLINATION":70.0036,"RA_OF_ASC_NODE":333.7811,"ARG_OF_PERICENTER":266.2728,"MEAN_ANOMALY":93.8207,"EPHEMERIS_TYPE":0,"CLASSIFICATION_TYPE":"U","NORAD_CAT_ID":66843,"ELEMENT_SET_NO":999,"REV_AT_EPOCH":1611,"BSTAR":0.00074923265,"MEAN_MOTION_DOT":8.858e-5,"MEAN_MOTION_DDOT":0},{"OBJECT_NAME":"H-2A R\/B","OBJECT_ID":"2012-025E","EPOCH":"2026-03-09T20:41:54.522240","MEAN_MOTION":14.95172532,"ECCENTRICITY":0.00433117,"INCLINATION":98.4741,"RA_OF_ASC_NODE":35.9227,"ARG_OF_PERICENTER":313.9175,"MEAN_ANOMALY":45.8471,"EPHEMERIS_TYPE":0,"CLASSIFICATION_TYPE":"U","NORAD_CAT_ID":38341,"ELEMENT_SET_NO":999,"REV_AT_EPOCH":74824,"BSTAR":0.00044934548,"MEAN_MOTION_DOT":4.959e-5,"MEAN_MOTION_DDOT":0}]
